NORAD_CAT_ID,OBJECT_NAME,OBJECT_TYPE,EPOCH,MEAN_MOTION,ECCENTRICITY,INCLINATION,RA_OF_ASC_NODE,ARG_OF_PERICENTER,MEAN_ANOMALY,BSTAR,MEAN_MOTION_DOT,MEAN_MOTION_DDOT,TLE_LINE0,TLE_LINE1,TLE_LINE2,SEMIMAJOR_AXIS,PERIOD,APOGEE,PERIGEE,DECAYED
53252.0,STARLINK-4132,PAYLOAD,2024-07-09 19:41:57,15.08831673,0.0001358,53.2181,42.9051,96.6481,263.4666,-9.8728e-05,-1.858e-05,0.0,0 STARLINK-4132,1 53252U 22086L   24191.82080896 -.00001858  00000-0 -98728-4 0  9995,2 53252  53.2181  42.9051 0001358  96.6481 263.4666 15.08831673109118,6917.906,95.438,540.71,538.831,0.0
53252.0,STARLINK-4132,PAYLOAD,2024-07-10 06:49:39,15.08837864,0.000136,53.2185,40.8216,90.8234,269.2914,2.9017e-05,1.74e-06,0.0,0 STARLINK-4132,1 53252U 22086L   24192.28448743  .00000174  00000-0  29017-4 0  9998,2 53252  53.2185  40.8216 0001360  90.8234 269.2914 15.08837864109384,6917.887,95.438,540.693,538.811,0.0
53252.0,STARLINK-4132,PAYLOAD,2024-07-10 21:08:08,15.08836272,0.000136,53.2185,38.1451,90.9242,269.1906,4.0764e-05,3.61e-06,0.0,0 STARLINK-4132,1 53252U 22086L   24192.88065044  .00000361  00000-0  40764-4 0  9993,2 53252  53.2185  38.1451 0001360  90.9242 269.1906 15.08836272109477,6917.892,95.438,540.698,538.816,0.0
53252.0,STARLINK-4132,PAYLOAD,2024-07-11 00:18:54,15.08840019,0.0001372,53.2182,37.5493,88.3718,271.7431,0.00010767,1.426e-05,0.0,0 STARLINK-4132,1 53252U 22086L   24193.01312933  .00001426  00000-0  10767-3 0  9993,2 53252  53.2182  37.5493 0001372  88.3718 271.7431 15.08840019109493,6917.88,95.438,540.694,538.796,0.0
53252.0,STARLINK-4132,PAYLOAD,2024-07-12 12:52:46,15.08825833,9.47e-05,53.2182,30.7078,93.623,266.4871,-0.00016424,-2.9e-05,0.0,0 STARLINK-4132,1 53252U 22086L   24194.53665486 -.00002900  00000-0 -16424-3 0  9991,2 53252  53.2182  30.7078 0000947  93.6230 266.4871 15.08825833109522,6917.924,95.438,540.444,539.134,0.0
53252.0,STARLINK-4132,PAYLOAD,2024-07-12 20:49:42,15.08842924,0.0001225,53.2157,29.2228,91.2275,268.8857,0.00013661,1.887e-05,0.0,0 STARLINK-4132,1 53252U 22086L   24194.86784869  .00001887  00000-0  13661-3 0  9995,2 53252  53.2157  29.2228 0001225  91.2275 268.8857 15.08842924109572,6917.871,95.437,540.584,538.889,0.0
53252.0,STARLINK-4132,PAYLOAD,2024-07-13 06:22:00,15.08851484,0.0001263,53.2162,27.4387,89.6486,270.4651,0.00035287,5.334e-05,0.0,0 STARLINK-4132,1 53252U 22086L   24195.26528586  .00005334  00000-0  35287-3 0  9991,2 53252  53.2162  27.4387 0001263  89.6486 270.4651 15.08851484109832,6917.845,95.437,540.584,538.837,0.0
53252.0,STARLINK-4132,PAYLOAD,2024-07-13 22:15:52,15.08846372,0.0001383,53.2185,24.4623,104.233,255.8816,0.00020719,3.012e-05,0.0,0 STARLINK-4132,1 53252U 22086L   24195.92768808  .00003012  00000-0  20719-3 0  9992,2 53252  53.2185  24.4623 0001383 104.2330 255.8816 15.08846372109933,6917.861,95.437,540.683,538.769,0.0
53252.0,STARLINK-4132,PAYLOAD,2024-07-14 12:34:20,15.08841052,0.0001332,53.2197,21.7864,111.9156,248.1978,0.0003162,4.748e-05,0.0,0 STARLINK-4132,1 53252U 22086L   24196.52385095  .00004748  00000-0  31620-3 0  9992,2 53252  53.2197  21.7864 0001332 111.9156 248.1978 15.08841052109820,6917.877,95.437,540.664,538.821,0.0
53252.0,STARLINK-4132,PAYLOAD,2024-07-14 18:55:53,15.08841816,0.0001209,53.2172,20.6012,82.3374,277.7756,0.00018901,2.722e-05,0.0,0 STARLINK-4132,1 53252U 22086L   24196.78881093  .00002722  00000-0  18901-3 0  9996,2 53252  53.2172  20.6012 0001209  82.3374 277.7756 15.08841816110060,6917.875,95.437,540.576,538.903,0.0
53252.0,STARLINK-4132,PAYLOAD,2024-07-15 12:25:07,15.08843829,0.0001286,53.2177,17.3291,89.0041,271.1099,0.00022377,3.276e-05,0.0,0 STARLINK-4132,1 53252U 22086L   24197.51745068  .00003276  00000-0  22377-3 0  9996,2 53252  53.2177  17.3291 0001286  89.0041 271.1099 15.08843829110173,6917.869,95.437,540.623,538.844,0.0
53252.0,STARLINK-4132,PAYLOAD,2024-07-15 18:46:40,15.0884004,0.0001336,53.2186,16.1393,89.3773,270.7373,0.00012314,1.672e-05,0.0,0 STARLINK-4132,1 53252U 22086L   24197.78241237  .00001672  00000-0  12314-3 0  9992,2 53252  53.2186  16.1393 0001336  89.3773 270.7373 15.08840040110019,6917.88,95.438,540.669,538.821,0.0
53252.0,STARLINK-4132,PAYLOAD,2024-07-15 21:57:26,15.08841868,0.0001297,53.2188,15.5439,87.4802,272.6338,0.0001081,1.433e-05,0.0,0 STARLINK-4132,1 53252U 22086L   24197.91489111  .00001433  00000-0  10810-3 0  9996,2 53252  53.2188  15.5439 0001297  87.4802 272.6338 15.08841868110238,6917.875,95.437,540.637,538.842,0.0
53252.0,STARLINK-4132,PAYLOAD,2024-07-16 12:15:54,15.08839427,0.0001209,53.2166,12.8688,84.5834,275.5296,0.00014686,2.05e-05,0.0,0 STARLINK-4132,1 53252U 22086L   24198.51105288  .00002050  00000-0  14686-3 0  9994,2 53252  53.2166  12.8688 0001209  84.5834 275.5296 15.08839427110329,6917.882,95.438,540.584,538.911,0.0
53252.0,STARLINK-4132,PAYLOAD,2024-07-16 18:37:27,15.08841952,0.000126,53.2181,11.678,97.3764,262.7371,7.9365e-05,9.76e-06,0.0,0 STARLINK-4132,1 53252U 22086L   24198.77601051  .00000976  00000-0  79365-4 0  9992,2 53252  53.2181  11.6780 0001260  97.3764 262.7371 15.08841952110369,6917.874,95.437,540.611,538.868,0.0
53252.0,STARLINK-4132,PAYLOAD,2024-07-17 04:09:45,15.08856781,0.0001075,53.2183,9.8933,74.3008,285.8103,0.00028878,4.313e-05,0.0,0 STARLINK-4132,1 53252U 22086L   24199.17344080  .00004313  00000-0  28878-3 0  9994,2 53252  53.2183   9.8933 0001075  74.3008 285.8103 15.08856781110220,6917.829,95.436,540.438,538.95,0.0
53252.0,STARLINK-4132,PAYLOAD,2024-07-17 18:28:15,15.08828819,0.0001298,53.219,7.2179,85.6986,274.4154,-4.9e-05,-1.067e-05,0.0,0 STARLINK-4132,1 53252U 22086L   24199.76961906 -.00001067  00000-0 -49000-4 0  9997,2 53252  53.2190   7.2179 0001298  85.6986 274.4154 15.08828819110310,6917.915,95.438,540.678,538.882,0.0
53252.0,STARLINK-4132,PAYLOAD,2024-07-18 04:00:33,15.08846771,0.0001001,53.2176,5.434,73.7659,286.3443,0.0002113,3.077e-05,0.0,0 STARLINK-4132,1 53252U 22086L   24200.16704991  .00003077  00000-0  21130-3 0  9997,2 53252  53.2176   5.4340 0001001  73.7659 286.3443 15.08846771110377,6917.86,95.437,540.417,539.032,0.0
53252.0,STARLINK-4132,PAYLOAD,2024-07-18 10:22:06,15.08829479,0.0001222,53.2185,4.2485,95.0273,265.0859,-9.0913e-05,-1.734e-05,0.0,0 STARLINK-4132,1 53252U 22086L   24200.43201722 -.00001734  00000-0 -90913-4 0  9997,2 53252  53.2185   4.2485 0001222  95.0273 265.0859 15.08829479110414,6917.913,95.438,540.623,538.932,0.0
53252.0,STARLINK-4132,PAYLOAD,2024-07-18 18:19:02,15.08834134,0.0001338,53.2168,2.7598,81.8339,278.2805,6.1784e-05,6.95e-06,0.0,0 STARLINK-4132,1 53252U 22086L   24200.76322019  .00000695  00000-0  61784-4 0  9993,2 53252  53.2168   2.7598 0001338  81.8339 278.2805 15.08834134110665,6917.898,95.438,540.689,538.838,0.0
53252.0,STARLINK-4132,PAYLOAD,2024-07-19 16:34:26,15.08840319,0.0001257,53.2175,358.5934,65.4915,294.6208,0.000219,3.199e-05,0.0,0 STARLINK-4132,1 53252U 22086L   24201.69058238  .00003199  00000-0  21900-3 0  9992,2 53252  53.2175 358.5934 0001257  65.4915 294.6208 15.08840319110602,6917.879,95.438,540.614,538.875,0.0
53252.0,STARLINK-4132,PAYLOAD,2024-07-20 03:42:07,15.08855044,0.0001072,53.2177,356.5122,93.9062,266.2053,0.00039385,5.988e-05,0.0,0 STARLINK-4132,1 53252U 22086L   24202.15425409  .00005988  00000-0  39385-3 0  9996,2 53252  53.2177 356.5122 0001072  93.9062 266.2053 15.08855044110676,6917.834,95.437,540.441,538.958,0.0
53252.0,STARLINK-4132,PAYLOAD,2024-07-20 10:03:41,15.08835995,0.0001556,53.2163,355.3254,100.7259,259.3909,8.9148e-06,-1.46e-06,0.0,0 STARLINK-4132,1 53252U 22086L   24202.41922599 -.00000146  00000-0  89148-5 0  9993,2 53252  53.2163 355.3254 0001556 100.7259 259.3909 15.08835995110717,6917.893,95.438,540.834,538.681,0.0
53252.0,STARLINK-4132,PAYLOAD,2024-07-20 14:49:50,15.08837198,0.0001274,53.217,354.4342,89.8014,270.3124,5.6729e-05,6.15e-06,0.0,0 STARLINK-4132,1 53252U 22086L   24202.61794296  .00000615  00000-0  56729-4 0  9994,2 53252  53.2170 354.4342 0001274  89.8014 270.3124 15.08837198110940,6917.889,95.438,540.635,538.873,0.0
53252.0,STARLINK-4132,PAYLOAD,2024-07-20 16:25:13,15.08840589,0.0001124,53.2163,354.1361,102.5769,257.5349,4.1141e-05,3.67e-06,0.0,0 STARLINK-4132,1 53252U 22086L   24202.68418405  .00000367  00000-0  41141-4 0  9992,2 53252  53.2163 354.1361 0001124 102.5769 257.5349 15.08840589110959,6917.879,95.438,540.521,538.966,0.0
53252.0,STARLINK-4132,PAYLOAD,2024-07-21 03:32:54,15.08856409,8.85e-05,53.2169,352.0519,100.341,259.7682,0.00056052,8.648e-05,0.0,0 STARLINK-4132,1 53252U 22086L   24203.14785565  .00008648  00000-0  56052-3 0  9994,2 53252  53.2169 352.0519 0000885 100.3410 259.7682 15.08856409110827,6917.83,95.437,540.307,539.083,0.0
53252.0,STARLINK-4132,PAYLOAD,2024-07-21 09:54:27,15.08843678,0.0001813,53.2178,350.8639,86.9797,273.1403,0.00024039,3.54e-05,0.0,0 STARLINK-4132,1 53252U 22086L   24203.41282144  .00003540  00000-0  24039-3 0  9995,2 53252  53.2178 350.8639 0001813  86.9797 273.1403 15.08843678110864,6917.869,95.437,540.988,538.48,0.0
53252.0,STARLINK-4132,PAYLOAD,2024-07-21 14:40:37,15.08843299,0.0001659,53.2177,349.9723,87.828,272.2902,0.00030502,4.57e-05,0.0,0 STARLINK-4132,1 53252U 22086L   24203.61154141  .00004570  00000-0  30502-3 0  9998,2 53252  53.2177 349.9723 0001659  87.8280 272.2902 15.08843299111090,6917.87,95.437,540.883,538.588,0.0
53252.0,STARLINK-4132,PAYLOAD,2024-07-21 16:16:00,15.08842152,0.0001431,53.2175,349.6771,77.5644,282.5508,0.00029715,4.445e-05,0.0,0 STARLINK-4132,1 53252U 22086L   24203.67778188  .00004445  00000-0  29715-3 0  9992,2 53252  53.2175 349.6771 0001431  77.5644 282.5508 15.08842152111101,6917.874,95.437,540.729,538.749,0.0
53252.0,STARLINK-4132,PAYLOAD,2024-07-22 09:45:14,15.08850891,0.0001468,53.217,346.4063,74.9145,285.201,0.0005385,8.295e-05,0.0,0 STARLINK-4132,1 53252U 22086L   24204.40642089  .00008295  00000-0  53850-3 0  9998,2 53252  53.2170 346.4063 0001468  74.9145 285.2010 15.08850891111211,6917.847,95.437,540.728,538.697,0.0
